[
    {
        "Altitude(m)": 563819.6951659549,
        "Argument of Periapsis(deg)": 0.033114955553567506,
        "Eccentricity": 0.0,
        "Inclination(deg)": 53.0,
        "Latitude(deg)": -33.359585330612354,
        "Longitude(deg)": 50.576868823464245,
        "Mean Anomaly(deg)": -136.81463566211207,
        "RAAN(deg)": 304.9507168426401,
        "Satellite Name": "Starlink Shell 1 1352",
        "Satellite Number": 1352,
        "Semi-Major Axis(m)": 6931778.249405717,
        "Time(s)": 950
    },
    {
        "Altitude(m)": 563993.9900225159,
        "Argument of Periapsis(deg)": 0.03346353403307874,
        "Eccentricity": 0.0,
        "Inclination(deg)": 53.0,
        "Latitude(deg)": -33.794507805799256,
        "Longitude(deg)": 51.07590766384944,
        "Mean Anomaly(deg)": -136.18780445855532,
        "RAAN(deg)": 304.9501980725626,
        "Satellite Name": "Starlink Shell 1 1352",
        "Satellite Number": 1352,
        "Semi-Major Axis(m)": 6931778.249405717,
        "Time(s)": 960
    },
    {
        "Altitude(m)": 564167.8815954673,
        "Argument of Periapsis(deg)": 0.03381211251258998,
        "Eccentricity": 0.0,
        "Inclination(deg)": 53.0,
        "Latitude(deg)": -34.22699759097196,
        "Longitude(deg)": 51.58040345462151,
        "Mean Anomaly(deg)": -135.56097325499866,
        "RAAN(deg)": 304.94967930248515,
        "Satellite Name": "Starlink Shell 1 1352",
        "Satellite Number": 1352,
        "Semi-Major Axis(m)": 6931778.249405717,
        "Time(s)": 970
    },
    {
        "Altitude(m)": 564341.3035286809,
        "Argument of Periapsis(deg)": 0.034160690992101214,
        "Eccentricity": 0.0,
        "Inclination(deg)": 53.0,
        "Latitude(deg)": -34.656991444022545,
        "Longitude(deg)": 52.09047063070158,
        "Mean Anomaly(deg)": -134.93414205144188,
        "RAAN(deg)": 304.9491605324077,
        "Satellite Name": "Starlink Shell 1 1352",
        "Satellite Number": 1352,
        "Semi-Major Axis(m)": 6931778.249405717,
        "Time(s)": 980
    },
    {
        "Altitude(m)": 564514.1895298301,
        "Argument of Periapsis(deg)": 0.034509269471612446,
        "Eccentricity": 0.0,
        "Inclination(deg)": 53.0,
        "Latitude(deg)": -35.08442466645703,
        "Longitude(deg)": 52.60622502536285,
        "Mean Anomaly(deg)": -134.30731084788516,
        "RAAN(deg)": 304.9486417623302,
        "Satellite Name": "Starlink Shell 1 1352",
        "Satellite Number": 1352,
        "Semi-Major Axis(m)": 6931778.249405717,
        "Time(s)": 990
    }
]